IRIDIUM 39              
1 25042U 97069D   26008.59213784  .00000930  00000+0  23677-3 0  9998
2 25042  86.3934 123.1172 0016940 346.6910  13.3845 14.49556590478713
IRIDIUM 38              
1 25043U 97069E   26008.62281565  .00000648  00000+0  20630-3 0  9997
2 25043  86.3993 146.8052 0003558 118.8892 241.2664 14.38348083475483
IRIDIUM 42              
1 25077U 97077A   26008.67333625  .00000543  00000+0  17815-3 0  9998
2 25077  86.3998 153.2058 0002352 111.5868 248.5580 14.36562418470690
IRIDIUM 44              
1 25078U 97077B   26008.62842051  .00000512  00000+0  15500-3 0  9997
2 25078  86.3988 134.6102 0003825  83.8134 276.3501 14.40460507473276
IRIDIUM 45              
1 25104U 97082A   26008.32180987  .00031207  00000+0  84737-3 0  9996
2 25104  86.3556 307.5610 0090925 278.2436  80.8510 15.33265935483342
IRIDIUM 24              
1 25105U 97082B   26008.47317877  .00000633  00000+0  18533-3 0  9993
2 25105  86.3917 353.2067 0013278 114.7304 245.5280 14.42361521472802
IRIDIUM 51              
1 25262U 98018A   26008.56439228  .00160809  00000+0  13050-2 0  9992
2 25262  86.3724 312.4079 0047298 160.0955 200.2175 15.68748097478844
IRIDIUM 57              
1 25273U 98019B   26008.59852923  .00000404  00000+0  13218-3 0  9990
2 25273  86.3930  59.1209 0002320  94.5247 265.6215 14.36075090454267
